OBJECT_NAME,OBJECT_ID,EPOCH,MEAN_MOTION,ECCENTRICITY,INCLINATION,RA_OF_ASC_NODE,ARG_OF_PERICENTER,MEAN_ANOMALY,EPHEMERIS_TYPE,CLASSIFICATION_TYPE,NORAD_CAT_ID,ELEMENT_SET_NO,REV_AT_EPOCH,BSTAR,MEAN_MOTION_DOT,MEAN_MOTION_DDOT
STARLINK-2609,2021-038W,2026-07-17T23:59:40.445952,15.31700906,.00013764,53.1602,99.1588,95.6038,264.5120,0,U,48373,999,28722,.8826693E-5,-.91E-6,0
STARLINK-2604,2021-038X,2026-07-18T00:40:23.061216,15.31707253,.00011328,53.1604,101.3281,89.0193,271.0938,0,U,48374,999,28719,.1836015E-5,-.308E-5,0
STARLINK-2603,2021-038Y,2026-07-18T00:40:52.417344,15.31701794,.00011802,53.1587,101.3481,94.8220,265.2916,0,U,48375,999,28719,-.23685738E-4,-.11E-4,0
STARLINK-2610,2021-038Z,2026-07-18T04:23:29.683680,15.72966221,.00015567,53.1563,86.5577,127.4368,232.6793,0,U,48376,999,28741,.56531872E-3,.78676E-3,0
STARLINK-2499,2021-038AA,2026-07-18T03:41:36.744000,15.31700960,.00012154,53.1605,100.8197,84.3554,275.7586,0,U,48377,999,28721,.1974457E-5,-.304E-5,0
STARLINK-2526,2021-038AB,2026-07-18T04:01:46.966080,15.31696686,.00016856,53.1619,100.9116,85.8311,274.2883,0,U,48378,999,28721,-.22726373E-4,-.107E-4,0
STARLINK-2612,2021-038AC,2026-07-18T00:06:25.835616,15.31703231,.00014628,53.1595,99.3980,102.2700,257.8466,0,U,48379,999,28722,.34413327E-4,.703E-5,0
STARLINK-2614,2021-038AD,2026-07-18T03:27:45.334944,15.31703737,.00012383,53.1602,98.6327,88.6290,271.4853,0,U,48380,999,28724,.13780158E-4,.63E-6,0
STARLINK-2630,2021-038AE,2026-07-17T23:53:31.042752,15.31697374,.00013214,53.1601,102.0503,76.4241,283.6908,0,U,48381,999,28718,.82721E-6,-.339E-5,0
STARLINK-2585,2021-038AF,2026-07-18T00:07:17.261760,15.31720473,.00012674,53.1609,101.4429,79.7391,280.3754,0,U,48382,999,28719,.81845591E-4,.2177E-4,0
STARLINK-2598,2021-038AJ,2026-07-18T00:26:32.028000,15.31681916,.00010309,53.1601,99.0113,92.3640,267.7480,0,U,48385,999,28845,-.84363678E-4,-.298E-4,0
STARLINK-2606,2021-038AK,2026-07-17T23:52:29.647776,15.31698995,.00010511,53.1594,99.2393,99.1354,260.9767,0,U,48386,999,28721,.13320133E-4,.48E-6,0
STARLINK-2594,2021-038AM,2026-07-17T23:59:09.936384,15.31699666,.0001187,53.1594,99.0028,86.9683,273.1454,0,U,48388,999,28722,-.584055E-5,-.546E-5,0
STARLINK-2586,2021-038AP,2026-07-18T01:35:56.127840,15.31699892,.00012654,53.1602,86.0240,90.5842,269.5305,0,U,48390,999,28863,.29867579E-4,.562E-5,0
STARLINK-2607,2021-038AQ,2026-07-17T23:07:52.340736,15.31702287,.00011387,53.1598,86.8530,93.2458,266.8674,0,U,48391,999,28861,-.2747018E-5,-.45E-5,0
STARLINK-2605,2021-038AR,2026-07-18T02:43:01.331904,15.31702477,.00013899,53.1607,85.6999,97.5324,262.5835,0,U,48392,999,28864,-.11494243E-4,-.722E-5,0
STARLINK-2574,2021-038AU,2026-07-18T01:29:39.668352,15.31700266,.0001364,53.1612,88.2945,87.2847,272.8310,0,U,48395,999,28860,-.9119483E-5,-.648E-5,0
STARLINK-2575,2021-038AV,2026-07-17T23:14:57.703488,15.31701803,.00011649,53.1585,86.3259,97.4762,262.6372,0,U,48396,999,28862,.11347613E-4,-.13E-6,0
STARLINK-2590,2021-038AW,2026-07-18T02:36:19.999584,15.31704265,.00013076,53.1611,85.8108,87.8173,272.2978,0,U,48397,999,28864,.35309049E-4,.731E-5,0
STARLINK-2588,2021-038AX,2026-07-18T02:41:30.711264,15.22231015,.00043548,53.0598,102.4374,137.2481,222.8855,0,U,48398,999,28838,.77595773E-3,.17783E-3,0
STARLINK-2587,2021-038AY,2026-07-17T23:08:16.055808,15.31701465,.00012684,53.1592,86.4123,91.8239,268.2908,0,U,48399,999,28861,.2192962E-4,.315E-5,0
STARLINK-2576,2021-038AZ,2026-07-18T02:49:48.084096,15.31700087,.00013627,53.1610,85.9880,87.2607,272.8550,0,U,48400,999,28742,.17004E-7,-.365E-5,0
STARLINK-2571,2021-038BA,2026-07-17T23:01:08.194368,15.31700055,.00011089,53.1590,86.7554,95.8656,264.2472,0,U,48401,999,28739,-.2469769E-5,-.442E-5,0
STARLINK-2593,2021-038BD,2026-07-18T02:09:29.154528,15.31696606,.00013767,53.1587,85.9272,222.2805,137.8091,0,U,48404,999,28742,-.24861067E-4,-.1136E-4,0
STARLINK-2570,2021-038BE,2026-07-17T21:47:46.699296,15.31703161,.00012395,53.1605,86.9533,75.5650,284.5489,0,U,48405,999,28738,.14476387E-4,.84E-6,0
STARLINK-2568,2021-038BF,2026-07-18T01:43:15.780288,15.31699436,.00012152,53.1601,89.1862,102.4923,257.6214,0,U,48406,999,28737,.20724174E-4,.278E-5,0
STARLINK-2592,2021-038BH,2026-07-17T23:48:38.716992,15.31700567,.0001366,53.1611,86.8665,102.7374,257.3780,0,U,48408,999,28739,.3819226E-5,-.247E-5,0
STARLINK-2563,2021-038BK,2026-07-18T00:16:03.157824,15.31701076,.00013199,53.1626,50.1979,96.4906,263.6246,0,U,48410,999,28791,.17840569E-4,.188E-5,0
STARLINK-2505,2021-038BL,2026-07-17T20:46:30.406944,15.31699159,.0001221,53.1597,48.1515,80.1184,279.9955,0,U,48411,999,28792,.52636434E-4,.1269E-4,0
STARLINK-2581,2021-038BM,2026-07-18T07:05:25.497600,15.31699013,.0001104,53.1613,48.7593,99.3270,260.7857,0,U,48412,999,28795,.1441796E-5,-.32E-5,0
YAOGAN-30 09A,2021-039A,2026-07-18T07:42:46.169280,15.02856127,.000459,34.9960,201.8364,311.0001,49.0310,0,U,48423,999,28423,.76844266E-4,.1021E-4,0
YAOGAN-30 09B,2021-039B,2026-07-17T23:12:00.098784,15.02826126,.00035903,34.9943,203.4287,97.6508,262.4608,0,U,48424,999,28417,.73003254E-4,.968E-5,0
YAOGAN-30 09C,2021-039C,2026-07-18T06:38:43.491264,15.02859982,.00017026,34.9939,201.2078,331.0978,28.9636,0,U,48425,999,28423,.75395491E-4,.1002E-4,0
TIANQI-12,2021-039D,2026-07-18T05:04:54.143328,15.12374376,.00046743,34.9981,133.8234,228.7512,131.2797,0,U,48426,999,28492,.16610822E-3,.2915E-4,0
STARLINK-2461,2021-040A,2026-07-18T06:03:13.478112,15.31704094,.00011421,53.1597,291.2309,88.3648,271.7484,0,U,48428,999,28668,.71308282E-4,.1849E-4,0
STARLINK-2700,2021-040D,2026-07-18T04:33:19.326528,15.31705239,.00012372,53.1604,265.5986,71.5220,288.5916,0,U,48431,999,28702,.29618164E-4,.554E-5,0
STARLINK-2680,2021-040E,2026-07-18T04:26:37.970016,15.31704026,.00010308,53.1600,265.7235,82.0142,278.0976,0,U,48432,999,28701,.17580402E-4,.181E-5,0
STARLINK-2699,2021-040F,2026-07-17T14:47:46.941792,15.31706168,.0001025,53.1607,268.0758,79.7787,280.3330,0,U,48433,999,28693,.12941E-4,.37E-6,0
STARLINK-2692,2021-040G,2026-07-18T04:27:04.946688,15.31703724,.00007922,53.1594,265.5883,90.9876,269.1216,0,U,48434,999,28703,.36359246E-4,.764E-5,0
STARLINK-2633,2021-040H,2026-07-18T07:05:21.360768,15.31681623,.00011354,53.1596,277.5718,69.3661,290.7462,0,U,48435,999,28686,-.5449516E-4,-.2055E-4,0
STARLINK-2639,2021-040J,2026-07-18T06:29:29.731200,15.31688525,.000079,53.1581,290.5649,72.6681,287.4407,0,U,48436,999,28668,-.39028565E-4,-.1575E-4,0
STARLINK-2642,2021-040K,2026-07-17T15:08:11.892480,15.31695837,.00010332,53.1608,306.4426,77.7626,282.3491,0,U,48437,999,28640,.51075384E-4,.122E-4,0
STARLINK-2640,2021-040L,2026-07-18T06:29:57.509664,15.31698277,.00011792,53.1608,290.6245,63.9098,296.2025,0,U,48438,999,28668,.10087745E-3,.2766E-4,0
STARLINK-2583,2021-040M,2026-07-18T06:50:07.901088,15.31706255,.00011352,53.1594,290.7389,93.6482,266.4650,0,U,48439,999,28668,.5591865E-4,.1371E-4,0
STARLINK-2682,2021-040N,2026-07-18T06:09:48.972384,15.31701407,.00009487,53.1594,290.6032,87.9803,272.1307,0,U,48440,999,28668,.17669505E-3,.5122E-4,0
STARLINK-2702,2021-040P,2026-07-18T06:16:32.255616,15.31704774,.00008161,53.1606,290.6694,79.8620,280.2474,0,U,48441,999,28668,.2572702E-4,.434E-5,0
STARLINK-2644,2021-040Q,2026-07-17T14:04:06.479040,15.48783030,.0004541,53.1570,287.9105,347.7797,12.3101,0,U,48442,999,28666,.34221E-3,.18286E-3,0
STARLINK-2663,2021-040R,2026-07-16T13:06:41.642784,15.31705244,.000119,53.1606,298.5365,81.5916,278.5220,0,U,48443,999,28642,.25968E-4,.441E-5,0
STARLINK-2645,2021-040S,2026-07-18T05:56:23.931744,15.31702441,.00008654,53.1601,290.7028,79.7674,280.3425,0,U,48444,999,28668,.25502589E-4,.427E-5,0
STARLINK-2634,2021-040T,2026-07-16T12:59:59.056800,15.31705154,.00008081,53.1615,298.5832,60.6700,299.4382,0,U,48445,999,28642,.30598056E-4,.585E-5,0
STARLINK-2655,2021-040X,2026-07-17T23:13:42.432672,15.31698972,.00011274,53.1605,291.9538,62.8304,297.2812,0,U,48449,999,28664,.39659633E-4,.866E-5,0
STARLINK-2703,2021-040AA,2026-07-18T06:56:47.801760,15.31703849,.00010223,53.1597,290.4525,84.9327,275.1791,0,U,48452,999,28669,.24753871E-4,.403E-5,0
STARLINK-2620,2021-040AB,2026-07-17T13:29:47.770080,15.31715494,.0001117,53.1604,293.8124,89.2140,270.8990,0,U,48453,999,28658,-.73468E-4,-.2645E-4,0
STARLINK-2654,2021-040AC,2026-07-18T06:36:38.757312,15.31708967,.00010242,53.1586,290.4830,82.6111,277.5007,0,U,48454,999,28669,.52369707E-4,.1261E-4,0
STARLINK-2497,2021-040AD,2026-07-18T05:36:19.267776,15.31674416,.0001913,53.1602,290.9772,39.9144,320.1998,0,U,48455,999,28667,.21637151E-3,.6349E-4,0
STARLINK-2698,2021-040AG,2026-07-18T05:36:52.336512,15.31699178,.00011886,53.1606,291.3507,94.9826,265.1312,0,U,48458,999,28739,.14314804E-4,.79E-6,0
STARLINK-2579,2021-040AH,2026-07-17T16:17:35.709792,15.31703443,.00009717,53.1603,293.3297,75.5475,284.5635,0,U,48459,999,28661,.37263397E-4,.792E-5,0
STARLINK-2582,2021-040AJ,2026-07-18T08:00:01.999872,15.92191967,.0006571,53.0413,202.8125,29.1483,155.5897,0,U,48460,999,602,.4809429E-3,.16207E-2,.20943468E-4
STARLINK-2683,2021-040AL,2026-07-17T17:02:18.277728,15.31711712,.00009934,53.1607,306.0972,77.5473,282.5640,0,U,48462,999,28642,.21186778E-3,.6217E-4,0
STARLINK-2686,2021-040AN,2026-07-17T17:36:21.790656,15.31698086,.00011046,53.1614,306.1025,79.6028,280.5098,0,U,48464,999,28642,.44694897E-4,.1022E-4,0
STARLINK-2681,2021-040AP,2026-07-18T05:45:39.854304,15.78917867,.00071281,53.1369,280.9205,351.2749,8.8148,0,U,48465,999,28682,.50135211E-3,.90918E-3,0
STARLINK-2687,2021-040AQ,2026-07-18T07:28:05.069856,15.31700276,.00010618,53.1590,303.3393,62.2130,297.8979,0,U,48466,999,28652,.32860546E-3,.9846E-4,0
STARLINK-2659,2021-040AR,2026-07-18T07:48:11.528352,15.31705128,.00013505,53.1580,303.1549,79.2135,280.9018,0,U,48467,999,28652,.57111814E-4,.1408E-4,0
STARLINK-2685,2021-040AS,2026-07-18T06:41:08.887776,15.31701377,.00010593,53.1597,303.7481,85.6432,274.4690,0,U,48468,999,28651,.22683313E-4,.339E-5,0
